{
  "norad_id": 66335,
  "name": "STARLINK-35417",
  "history": [
    {
      "epoch": "2026-03-28T12:26:16.139040",
      "apogee_km": 484.21608807985194,
      "perigee_km": 481.7008104881452,
      "latitude_deg": -35.028321895331565,
      "longitude_deg": 143.25126560009085,
      "semi_major_axis_km": 6861.095449283998,
      "eccentricity": 0.0001833,
      "inclination_deg": 43.0023,
      "raan_deg": 106.2096,
      "arg_perigee_deg": 268.2625,
      "mean_anomaly_deg": 91.8017,
      "mean_motion_rev_day": 15.27610273
    }
  ]
}