{"fetched_at":"2026-03-30T13:17:50Z","count":15418,"tles":[{"name":"STARLINK-35417","line1":"1 66335U 25253S   26087.51824235  .00033765  00000+0  12298-2 0  9990","line2":"2 66335  43.0023 106.2096 0001833 268.2625  91.8017 15.27610273 23125","category":"Starlink"}]}